CCSDS_OMM_VERS = 2.0
CREATION_DATE  = 
ORIGINATOR     = 

OBJECT_NAME    = STARLINK-35783
OBJECT_ID      = 2025-247X
CENTER_NAME    = EARTH
REF_FRAME      = TEME
TIME_SYSTEM    = UTC
MEAN_ELEMENT_THEORY = SGP/SGP4

EPOCH          = 2025-11-19T22:00:01.999584
MEAN_MOTION    = 15.49230716
ECCENTRICITY   = .00012563
INCLINATION    = 53.1597
RA_OF_ASC_NODE = 345.2021
ARG_OF_PERICENTER = 72.2782
MEAN_ANOMALY   = 239.0658

EPHEMERIS_TYPE = 0
CLASSIFICATION_TYPE = U
NORAD_CAT_ID   = 66286
ELEMENT_SET_NO = 999
REV_AT_EPOCH   = 390
BSTAR          = .20914296E-2
MEAN_MOTION_DOT = .117306E-2
MEAN_MOTION_DDOT = 0

CCSDS_OMM_VERS = 2.0
CREATION_DATE  = 
ORIGINATOR     = 

OBJECT_NAME    = STARLINK-34884
OBJECT_ID      = 2025-247Y
CENTER_NAME    = EARTH
REF_FRAME      = TEME
TIME_SYSTEM    = UTC
MEAN_ELEMENT_THEORY = SGP/SGP4

EPOCH          = 2025-11-19T22:00:01.999584
MEAN_MOTION    = 15.49228383
ECCENTRICITY   = .00013268
INCLINATION    = 53.1596
RA_OF_ASC_NODE = 345.1986
ARG_OF_PERICENTER = 74.8767
MEAN_ANOMALY   = 238.3852

EPHEMERIS_TYPE = 0
CLASSIFICATION_TYPE = U
NORAD_CAT_ID   = 66287
ELEMENT_SET_NO = 999
REV_AT_EPOCH   = 422
BSTAR          = .2140541E-2
MEAN_MOTION_DOT = .120105E-2
MEAN_MOTION_DDOT = 0

CCSDS_OMM_VERS = 2.0
CREATION_DATE  = 
ORIGINATOR     = 

OBJECT_NAME    = STARLINK-34896
OBJECT_ID      = 2025-247Z
CENTER_NAME    = EARTH
REF_FRAME      = TEME
TIME_SYSTEM    = UTC
MEAN_ELEMENT_THEORY = SGP/SGP4

EPOCH          = 2025-11-19T22:00:01.999584
MEAN_MOTION    = 15.49229517
ECCENTRICITY   = .00013091
INCLINATION    = 53.1596
RA_OF_ASC_NODE = 345.1946
ARG_OF_PERICENTER = 75.6519
MEAN_ANOMALY   = 239.5288

EPHEMERIS_TYPE = 0
CLASSIFICATION_TYPE = U
NORAD_CAT_ID   = 66288
ELEMENT_SET_NO = 999
REV_AT_EPOCH   = 422
BSTAR          = .20893463E-2
MEAN_MOTION_DOT = .117182E-2
MEAN_MOTION_DDOT = 0

CCSDS_OMM_VERS = 2.0
CREATION_DATE  = 
ORIGINATOR     = 

OBJECT_NAME    = STARLINK-35802
OBJECT_ID      = 2025-247AA
CENTER_NAME    = EARTH
REF_FRAME      = TEME
TIME_SYSTEM    = UTC
MEAN_ELEMENT_THEORY = SGP/SGP4

EPOCH          = 2025-11-19T22:00:01.999584
MEAN_MOTION    = 15.49309263
ECCENTRICITY   = .00010862
INCLINATION    = 53.1595
RA_OF_ASC_NODE = 345.1906
ARG_OF_PERICENTER = 81.3343
MEAN_ANOMALY   = 235.7450

EPHEMERIS_TYPE = 0
CLASSIFICATION_TYPE = U
NORAD_CAT_ID   = 66289
ELEMENT_SET_NO = 999
REV_AT_EPOCH   = 390
BSTAR          = -.58316132E-3
MEAN_MOTION_DOT = -.32745E-3
MEAN_MOTION_DDOT = 0

CCSDS_OMM_VERS = 2.0
CREATION_DATE  = 
ORIGINATOR     = 

OBJECT_NAME    = STARLINK-35799
OBJECT_ID      = 2025-247AB
CENTER_NAME    = EARTH
REF_FRAME      = TEME
TIME_SYSTEM    = UTC
MEAN_ELEMENT_THEORY = SGP/SGP4

EPOCH          = 2025-11-19T22:00:01.999584
MEAN_MOTION    = 15.49232368
ECCENTRICITY   = .00011729
INCLINATION    = 53.1597
RA_OF_ASC_NODE = 345.1865
ARG_OF_PERICENTER = 79.9996
MEAN_ANOMALY   = 239.0090

EPHEMERIS_TYPE = 0
CLASSIFICATION_TYPE = U
NORAD_CAT_ID   = 66290
ELEMENT_SET_NO = 999
REV_AT_EPOCH   = 427
BSTAR          = .20772756E-2
MEAN_MOTION_DOT = .116504E-2
MEAN_MOTION_DDOT = 0

CCSDS_OMM_VERS = 2.0
CREATION_DATE  = 
ORIGINATOR     = 

OBJECT_NAME    = STARLINK-35800
OBJECT_ID      = 2025-247AC
CENTER_NAME    = EARTH
REF_FRAME      = TEME
TIME_SYSTEM    = UTC
MEAN_ELEMENT_THEORY = SGP/SGP4

EPOCH          = 2025-11-19T22:00:01.999584
MEAN_MOTION    = 15.49236438
ECCENTRICITY   = .00011781
INCLINATION    = 53.1597
RA_OF_ASC_NODE = 345.1778
ARG_OF_PERICENTER = 84.3652
MEAN_ANOMALY   = 238.4650

EPHEMERIS_TYPE = 0
CLASSIFICATION_TYPE = U
NORAD_CAT_ID   = 66291
ELEMENT_SET_NO = 999
REV_AT_EPOCH   = 427
BSTAR          = .21045765E-2
MEAN_MOTION_DOT = .118082E-2
MEAN_MOTION_DDOT = 0

CCSDS_OMM_VERS = 2.0
CREATION_DATE  = 
ORIGINATOR     = 

OBJECT_NAME    = STARLINK-35798
OBJECT_ID      = 2025-247AD
CENTER_NAME    = EARTH
REF_FRAME      = TEME
TIME_SYSTEM    = UTC
MEAN_ELEMENT_THEORY = SGP/SGP4

EPOCH          = 2025-11-19T22:00:01.999584
MEAN_MOTION    = 15.49233762
ECCENTRICITY   = .00012837
INCLINATION    = 53.1597
RA_OF_ASC_NODE = 345.1823
ARG_OF_PERICENTER = 81.1847
MEAN_ANOMALY   = 239.7248

EPHEMERIS_TYPE = 0
CLASSIFICATION_TYPE = U
NORAD_CAT_ID   = 66292
ELEMENT_SET_NO = 999
REV_AT_EPOCH   = 395
BSTAR          = .22111397E-2
MEAN_MOTION_DOT = .124169E-2
MEAN_MOTION_DDOT = 0

CCSDS_OMM_VERS = 2.0
CREATION_DATE  = 
ORIGINATOR     = 

OBJECT_NAME    = LVM3 R/B
OBJECT_ID      = 2025-249A
CENTER_NAME    = EARTH
REF_FRAME      = TEME
TIME_SYSTEM    = UTC
MEAN_ELEMENT_THEORY = SGP/SGP4

EPOCH          = 2025-11-19T21:29:56.986944
MEAN_MOTION    = 3.13300068
ECCENTRICITY   = .66751049
INCLINATION    = 21.3420
RA_OF_ASC_NODE = 150.6368
ARG_OF_PERICENTER = 196.1239
MEAN_ANOMALY   = 122.7906

EPHEMERIS_TYPE = 0
CLASSIFICATION_TYPE = U
NORAD_CAT_ID   = 66310
ELEMENT_SET_NO = 999
REV_AT_EPOCH   = 56
BSTAR          = .11319827E-2
MEAN_MOTION_DOT = .40352E-3
MEAN_MOTION_DDOT = -.640351E-6

CCSDS_OMM_VERS = 2.0
CREATION_DATE  = 
ORIGINATOR     = 

OBJECT_NAME    = CMS-03 (GSAT-7R)
OBJECT_ID      = 2025-249B
CENTER_NAME    = EARTH
REF_FRAME      = TEME
TIME_SYSTEM    = UTC
MEAN_ELEMENT_THEORY = SGP/SGP4

EPOCH          = 2025-11-19T21:21:04.081248
MEAN_MOTION    = 1.00274110
ECCENTRICITY   = .00046758
INCLINATION    = 0.1987
RA_OF_ASC_NODE = 271.5592
ARG_OF_PERICENTER = 197.3703
MEAN_ANOMALY   = 4.0049

EPHEMERIS_TYPE = 0
CLASSIFICATION_TYPE = U
NORAD_CAT_ID   = 66311
ELEMENT_SET_NO = 999
REV_AT_EPOCH   = 25
BSTAR          = 0
MEAN_MOTION_DOT = -.237E-5
MEAN_MOTION_DDOT = 0

CCSDS_OMM_VERS = 2.0
CREATION_DATE  = 
ORIGINATOR     = 

OBJECT_NAME    = YAOGAN-46
OBJECT_ID      = 2025-250A
CENTER_NAME    = EARTH
REF_FRAME      = TEME
TIME_SYSTEM    = UTC
MEAN_ELEMENT_THEORY = SGP/SGP4

EPOCH          = 2025-11-19T17:03:07.460064
MEAN_MOTION    = 5.35115933
ECCENTRICITY   = .00492424
INCLINATION    = 20.0323
RA_OF_ASC_NODE = 106.9378
ARG_OF_PERICENTER = 131.7872
MEAN_ANOMALY   = 228.6447

EPHEMERIS_TYPE = 0
CLASSIFICATION_TYPE = U
NORAD_CAT_ID   = 66313
ELEMENT_SET_NO = 999
REV_AT_EPOCH   = 96
BSTAR          = 0
MEAN_MOTION_DOT = -.9E-7
MEAN_MOTION_DDOT = 0

CCSDS_OMM_VERS = 2.0
CREATION_DATE  = 
ORIGINATOR     = 

OBJECT_NAME    = SENTINEL-1D
OBJECT_ID      = 2025-251A
CENTER_NAME    = EARTH
REF_FRAME      = TEME
TIME_SYSTEM    = UTC
MEAN_ELEMENT_THEORY = SGP/SGP4

EPOCH          = 2025-11-19T23:09:37.643328
MEAN_MOTION    = 14.59587166
ECCENTRICITY   = .00004772
INCLINATION    = 98.1938
RA_OF_ASC_NODE = 329.2833
ARG_OF_PERICENTER = 233.8208
MEAN_ANOMALY   = 126.2948

EPHEMERIS_TYPE = 0
CLASSIFICATION_TYPE = U
NORAD_CAT_ID   = 66315
ELEMENT_SET_NO = 999
REV_AT_EPOCH   = 221
BSTAR          = .54610919E-4
MEAN_MOTION_DOT = .214E-5
MEAN_MOTION_DDOT = 0

CCSDS_OMM_VERS = 2.0
CREATION_DATE  = 
ORIGINATOR     = 

OBJECT_NAME    = QPS-SAR-14 (YACHIHOKO-I)
OBJECT_ID      = 2025-252A
CENTER_NAME    = EARTH
REF_FRAME      = TEME
TIME_SYSTEM    = UTC
MEAN_ELEMENT_THEORY = SGP/SGP4

EPOCH          = 2025-11-19T22:13:24.544128
MEAN_MOTION    = 14.97373859
ECCENTRICITY   = .00084595
INCLINATION    = 42.0039
RA_OF_ASC_NODE = 200.4108
ARG_OF_PERICENTER = 351.1630
MEAN_ANOMALY   = 8.9045

EPHEMERIS_TYPE = 0
CLASSIFICATION_TYPE = U
NORAD_CAT_ID   = 66316
ELEMENT_SET_NO = 999
REV_AT_EPOCH   = 211
BSTAR          = .38288953E-3
MEAN_MOTION_DOT = .4346E-4
MEAN_MOTION_DDOT = 0

