STARLINK-35783          
1 66286U 25247X   25323.91668981  .00117306  00000+0  20914-2 0  9996
2 66286  53.1597 345.2021 0001256  72.2782 239.0658 15.49230716  3902
STARLINK-34884          
1 66287U 25247Y   25323.91668981  .00120105  00000+0  21405-2 0  9994
2 66287  53.1596 345.1986 0001326  74.8767 238.3852 15.49228383  4221
STARLINK-34896          
1 66288U 25247Z   25323.91668981  .00117182  00000+0  20893-2 0  9996
2 66288  53.1596 345.1946 0001309  75.6519 239.5288 15.49229517  4229
STARLINK-35802          
1 66289U 25247AA  25323.91668981 -.00032745  00000+0 -58316-3 0  9992
2 66289  53.1595 345.1906 0001086  81.3343 235.7450 15.49309263  3906
STARLINK-35799          
1 66290U 25247AB  25323.91668981  .00116504  00000+0  20773-2 0  9993
2 66290  53.1597 345.1865 0001172  79.9996 239.0090 15.49232368  4276
STARLINK-35800          
1 66291U 25247AC  25323.91668981  .00118082  00000+0  21046-2 0  9991
2 66291  53.1597 345.1778 0001178  84.3652 238.4650 15.49236438  4272
STARLINK-35798          
1 66292U 25247AD  25323.91668981  .00124169  00000+0  22111-2 0  9999
2 66292  53.1597 345.1823 0001283  81.1847 239.7248 15.49233762  3950
LVM3 R/B                
1 66310U 25249A   25323.89579846  .00040352 -64035-6  11320-2 0  9997
2 66310  21.3420 150.6368 6675104 196.1239 122.7906  3.13300068   561
CMS-03 (GSAT-7R)        
1 66311U 25249B   25323.88963057 -.00000237  00000+0  00000+0 0  9991
2 66311   0.1987 271.5592 0004675 197.3703   4.0049  1.00274110   257
YAOGAN-46               
1 66313U 25250A   25323.71050301 -.00000009  00000+0  00000+0 0  9993
2 66313  20.0323 106.9378 0049242 131.7872 228.6447  5.35115933   968
SENTINEL-1D             
1 66315U 25251A   25323.96501902  .00000214  00000+0  54611-4 0  9990
2 66315  98.1938 329.2833 0000477 233.8208 126.2948 14.59587166  2214
QPS-SAR-14 (YACHIHOKO-I)
1 66316U 25252A   25323.92597852  .00004346  00000+0  38289-3 0  9999
2 66316  42.0039 200.4108 0008459 351.1630   8.9045 14.97373859  2118
